[{"OBJECT_NAME":"STARLINK-37122","OBJECT_ID":"2026-077S","EPOCH":"2026-04-23T16:00:01.999584","MEAN_MOTION":15.75189636,"ECCENTRICITY":9.657e-5,"INCLINATION":97.2852,"RA_OF_ASC_NODE":344.7922,"ARG_OF_PERICENTER":87.4965,"MEAN_ANOMALY":196.169,"EPHEMERIS_TYPE":0,"CLASSIFICATION_TYPE":"U","NORAD_CAT_ID":68678,"ELEMENT_SET_NO":999,"REV_AT_EPOCH":290,"BSTAR":-0.00010707839,"MEAN_MOTION_DOT":-0.0001607,"MEAN_MOTION_DDOT":0},{"OBJECT_NAME":"STARLINK-37310","OBJECT_ID":"2026-077T","EPOCH":"2026-04-23T16:00:01.999584","MEAN_MOTION":15.75230054,"ECCENTRICITY":6.015e-5,"INCLINATION":97.2855,"RA_OF_ASC_NODE":344.7945,"ARG_OF_PERICENTER":38.4086,"MEAN_ANOMALY":249.1458,"EPHEMERIS_TYPE":0,"CLASSIFICATION_TYPE":"U","NORAD_CAT_ID":68679,"ELEMENT_SET_NO":999,"REV_AT_EPOCH":295,"BSTAR":0.0001492705,"MEAN_MOTION_DOT":0.00022231,"MEAN_MOTION_DDOT":0},{"OBJECT_NAME":"STARLINK-37306","OBJECT_ID":"2026-077U","EPOCH":"2026-04-23T16:00:01.999584","MEAN_MOTION":15.7523447,"ECCENTRICITY":0.00015308,"INCLINATION":97.2847,"RA_OF_ASC_NODE":344.7996,"ARG_OF_PERICENTER":79.3679,"MEAN_ANOMALY":220.2828,"EPHEMERIS_TYPE":0,"CLASSIFICATION_TYPE":"U","NORAD_CAT_ID":68680,"ELEMENT_SET_NO":999,"REV_AT_EPOCH":295,"BSTAR":-0.00053867156,"MEAN_MOTION_DOT":-0.00079885,"MEAN_MOTION_DDOT":0},{"OBJECT_NAME":"STARLINK-37307","OBJECT_ID":"2026-077V","EPOCH":"2026-04-23T16:00:01.999584","MEAN_MOTION":15.75211419,"ECCENTRICITY":0.00018282,"INCLINATION":97.2852,"RA_OF_ASC_NODE":344.7983,"ARG_OF_PERICENTER":123.2457,"MEAN_ANOMALY":174.409,"EPHEMERIS_TYPE":0,"CLASSIFICATION_TYPE":"U","NORAD_CAT_ID":68681,"ELEMENT_SET_NO":999,"REV_AT_EPOCH":295,"BSTAR":-0.00034378331,"MEAN_MOTION_DOT":-0.00051152,"MEAN_MOTION_DDOT":0},{"OBJECT_NAME":"STARLINK-37300","OBJECT_ID":"2026-077W","EPOCH":"2026-04-23T16:00:01.999584","MEAN_MOTION":15.75222296,"ECCENTRICITY":0.00015634,"INCLINATION":97.2843,"RA_OF_ASC_NODE":344.8095,"ARG_OF_PERICENTER":97.4438,"MEAN_ANOMALY":224.2061,"EPHEMERIS_TYPE":0,"CLASSIFICATION_TYPE":"U","NORAD_CAT_ID":68682,"ELEMENT_SET_NO":999,"REV_AT_EPOCH":279,"BSTAR":-0.00046669907,"MEAN_MOTION_DOT":-0.00069278,"MEAN_MOTION_DDOT":0},{"OBJECT_NAME":"STARLINK-37304","OBJECT_ID":"2026-077X","EPOCH":"2026-04-23T16:00:01.999584","MEAN_MOTION":15.75218027,"ECCENTRICITY":0.00012443,"INCLINATION":97.2844,"RA_OF_ASC_NODE":344.8078,"ARG_OF_PERICENTER":100.7526,"MEAN_ANOMALY":218.912,"EPHEMERIS_TYPE":0,"CLASSIFICATION_TYPE":"U","NORAD_CAT_ID":68683,"ELEMENT_SET_NO":999,"REV_AT_EPOCH":295,"BSTAR":-0.00048847164,"MEAN_MOTION_DOT":-0.00072461,"MEAN_MOTION_DDOT":0},{"OBJECT_NAME":"STARLINK-37287","OBJECT_ID":"2026-077Y","EPOCH":"2026-04-23T16:00:01.999584","MEAN_MOTION":15.75228123,"ECCENTRICITY":0.0001295,"INCLINATION":97.2843,"RA_OF_ASC_NODE":344.8061,"ARG_OF_PERICENTER":94.7858,"MEAN_ANOMALY":218.8684,"EPHEMERIS_TYPE":0,"CLASSIFICATION_TYPE":"U","NORAD_CAT_ID":68684,"ELEMENT_SET_NO":999,"REV_AT_EPOCH":295,"BSTAR":-0.00058213964,"MEAN_MOTION_DOT":-0.00086231,"MEAN_MOTION_DDOT":0},{"OBJECT_NAME":"STARLINK-36278","OBJECT_ID":"2026-077Z","EPOCH":"2026-04-23T16:00:01.999584","MEAN_MOTION":15.75243,"ECCENTRICITY":9.763e-5,"INCLINATION":97.2843,"RA_OF_ASC_NODE":344.8113,"ARG_OF_PERICENTER":82.9732,"MEAN_ANOMALY":242.6654,"EPHEMERIS_TYPE":0,"CLASSIFICATION_TYPE":"U","NORAD_CAT_ID":68685,"ELEMENT_SET_NO":999,"REV_AT_EPOCH":295,"BSTAR":-0.00059739182,"MEAN_MOTION_DOT":-0.00088517,"MEAN_MOTION_DDOT":0},{"OBJECT_NAME":"STARLINK-37213","OBJECT_ID":"2026-077AA","EPOCH":"2026-04-23T16:00:01.999584","MEAN_MOTION":15.75233825,"ECCENTRICITY":0.00015457,"INCLINATION":97.2845,"RA_OF_ASC_NODE":344.8024,"ARG_OF_PERICENTER":92.765,"MEAN_ANOMALY":214.887,"EPHEMERIS_TYPE":0,"CLASSIFICATION_TYPE":"U","NORAD_CAT_ID":68686,"ELEMENT_SET_NO":999,"REV_AT_EPOCH":295,"BSTAR":-0.00057985696,"MEAN_MOTION_DOT":-0.0008592,"MEAN_MOTION_DDOT":0},{"OBJECT_NAME":"GUOWANG TEST OBJECT A","OBJECT_ID":"2026-078A","EPOCH":"2026-04-24T07:36:21.119904","MEAN_MOTION":13.6881674,"ECCENTRICITY":0.00082181,"INCLINATION":86.4974,"RA_OF_ASC_NODE":301.2336,"ARG_OF_PERICENTER":243.0763,"MEAN_ANOMALY":116.9557,"EPHEMERIS_TYPE":0,"CLASSIFICATION_TYPE":"U","NORAD_CAT_ID":68687,"ELEMENT_SET_NO":999,"REV_AT_EPOCH":174,"BSTAR":0.00031715448,"MEAN_MOTION_DOT":2.89e-6,"MEAN_MOTION_DDOT":0},{"OBJECT_NAME":"CYGNUS NG-24","OBJECT_ID":"2026-079A","EPOCH":"2026-04-23T14:51:45.400608","MEAN_MOTION":15.48913482,"ECCENTRICITY":0.0006828,"INCLINATION":51.6319,"RA_OF_ASC_NODE":210.1816,"ARG_OF_PERICENTER":342.1779,"MEAN_ANOMALY":17.8969,"EPHEMERIS_TYPE":0,"CLASSIFICATION_TYPE":"U","NORAD_CAT_ID":68689,"ELEMENT_SET_NO":999,"REV_AT_EPOCH":191,"BSTAR":0.00017870385,"MEAN_MOTION_DOT":9.382e-5,"MEAN_MOTION_DDOT":0},{"OBJECT_NAME":"JILIN GAOFEN OBJECT A","OBJECT_ID":"2026-080A","EPOCH":"2026-04-22T05:43:44.246784","MEAN_MOTION":15.0834833,"ECCENTRICITY":0.00110753,"INCLINATION":97.6634,"RA_OF_ASC_NODE":187.8651,"ARG_OF_PERICENTER":252.4139,"MEAN_ANOMALY":107.588,"EPHEMERIS_TYPE":0,"CLASSIFICATION_TYPE":"U","NORAD_CAT_ID":68691,"ELEMENT_SET_NO":999,"REV_AT_EPOCH":122,"BSTAR":3.3994394e-5,"MEAN_MOTION_DOT":4.64e-6,"MEAN_MOTION_DDOT":0},{"OBJECT_NAME":"JILIN GAOFEN OBJECT B","OBJECT_ID":"2026-080B","EPOCH":"2026-04-22T05:37:48.677952","MEAN_MOTION":15.09310947,"ECCENTRICITY":0.00141421,"INCLINATION":97.6622,"RA_OF_ASC_NODE":187.8704,"ARG_OF_PERICENTER":250.2251,"MEAN_ANOMALY":109.7453,"EPHEMERIS_TYPE":0,"CLASSIFICATION_TYPE":"U","NORAD_CAT_ID":68692,"ELEMENT_SET_NO":999,"REV_AT_EPOCH":122,"BSTAR":0.00018766726,"MEAN_MOTION_DOT":2.933e-5,"MEAN_MOTION_DDOT":0},{"OBJECT_NAME":"JILIN GAOFEN OBJECT C","OBJECT_ID":"2026-080C","EPOCH":"2026-04-22T04:05:37.908960","MEAN_MOTION":15.08412424,"ECCENTRICITY":0.00128364,"INCLINATION":97.6597,"RA_OF_ASC_NODE":187.7982,"ARG_OF_PERICENTER":238.6736,"MEAN_ANOMALY":121.3236,"EPHEMERIS_TYPE":0,"CLASSIFICATION_TYPE":"U","NORAD_CAT_ID":68693,"ELEMENT_SET_NO":999,"REV_AT_EPOCH":121,"BSTAR":3.8042382e-5,"MEAN_MOTION_DOT":5.28e-6,"MEAN_MOTION_DDOT":0}]
