STARLINK-37122          
1 68678U 26077S   26113.66668981 -.00016070  00000+0 -10708-3 0  9994
2 68678  97.2852 344.7922 0000965  87.4965 196.1690 15.75189636  2904
STARLINK-37310          
1 68679U 26077T   26113.66668981  .00022231  00000+0  14927-3 0  9996
2 68679  97.2855 344.7945 0000601  38.4086 249.1458 15.75230054  2957
STARLINK-37306          
1 68680U 26077U   26113.66668981 -.00079885  00000+0 -53867-3 0  9993
2 68680  97.2847 344.7996 0001530  79.3679 220.2828 15.75234470  2957
STARLINK-37307          
1 68681U 26077V   26113.66668981 -.00051152  00000+0 -34378-3 0  9997
2 68681  97.2852 344.7983 0001828 123.2457 174.4090 15.75211419  2952
STARLINK-37300          
1 68682U 26077W   26113.66668981 -.00069278  00000+0 -46670-3 0  9994
2 68682  97.2843 344.8095 0001563  97.4438 224.2061 15.75222296  2794
STARLINK-37304          
1 68683U 26077X   26113.66668981 -.00072461  00000+0 -48847-3 0  9991
2 68683  97.2844 344.8078 0001244 100.7526 218.9120 15.75218027  2950
STARLINK-37287          
1 68684U 26077Y   26113.66668981 -.00086231  00000+0 -58214-3 0  9991
2 68684  97.2843 344.8061 0001295  94.7858 218.8684 15.75228123  2950
STARLINK-36278          
1 68685U 26077Z   26113.66668981 -.00088517  00000+0 -59739-3 0  9994
2 68685  97.2843 344.8113 0000976  82.9732 242.6654 15.75243000  2957
STARLINK-37213          
1 68686U 26077AA  26113.66668981 -.00085920  00000+0 -57986-3 0  9992
2 68686  97.2845 344.8024 0001545  92.7650 214.8870 15.75233825  2957
GUOWANG TEST OBJECT A   
1 68687U 26078A   26114.31691111  .00000289  00000+0  31715-3 0  9993
2 68687  86.4974 301.2336 0008218 243.0763 116.9557 13.68816740  1747
CYGNUS NG-24            
1 68689U 26079A   26113.61927547  .00009382  00000+0  17870-3 0  9992
2 68689  51.6319 210.1816 0006828 342.1779  17.8969 15.48913482  1916
JILIN GAOFEN OBJECT A   
1 68691U 26080A   26112.23870656  .00000464  00000+0  33994-4 0  9990
2 68691  97.6634 187.8651 0011075 252.4139 107.5880 15.08348330  1222
JILIN GAOFEN OBJECT B   
1 68692U 26080B   26112.23459118  .00002933  00000+0  18767-3 0  9990
2 68692  97.6622 187.8704 0014142 250.2251 109.7453 15.09310947  1222
JILIN GAOFEN OBJECT C   
1 68693U 26080C   26112.17057765  .00000528  00000+0  38042-4 0  9993
2 68693  97.6597 187.7982 0012836 238.6736 121.3236 15.08412424  1217
